[{"OBJECT_NAME":"IRIDIUM 155","OBJECT_ID":"2018-061E","EPOCH":"2026-03-09T14:54:30.448800","MEAN_MOTION":14.34217216,"ECCENTRICITY":0.000198,"INCLINATION":86.3914,"RA_OF_ASC_NODE":98.3248,"ARG_OF_PERICENTER":94.0732,"MEAN_ANOMALY":266.069,"EPHEMERIS_TYPE":0,"CLASSIFICATION_TYPE":"U","NORAD_CAT_ID":43573,"ELEMENT_SET_NO":999,"REV_AT_EPOCH":39908,"BSTAR":-1.8836e-5,"MEAN_MOTION_DOT":-3.3e-7,"MEAN_MOTION_DDOT":0},{"OBJECT_NAME":"CZ-6A DEB","OBJECT_ID":"2024-140ZT","EPOCH":"2026-03-09T14:55:19.246656","MEAN_MOTION":14.37954271,"ECCENTRICITY":0.002408,"INCLINATION":89.1158,"RA_OF_ASC_NODE":292.5329,"ARG_OF_PERICENTER":350.5027,"MEAN_ANOMALY":9.5714,"EPHEMERIS_TYPE":0,"CLASSIFICATION_TYPE":"U","NORAD_CAT_ID":61461,"ELEMENT_SET_NO":999,"REV_AT_EPOCH":8004,"BSTAR":0.0012116,"MEAN_MOTION_DOT":3.685e-5,"MEAN_MOTION_DDOT":0}]
